[{"OBJECT_NAME":"YAOGAN-20 01A","OBJECT_ID":"2014-047A","EPOCH":"2026-03-09T23:42:48.180096","MEAN_MOTION":13.4543306,"ECCENTRICITY":0.03815274,"INCLINATION":63.3786,"RA_OF_ASC_NODE":274.8961,"ARG_OF_PERICENTER":14.1455,"MEAN_ANOMALY":346.9906,"EPHEMERIS_TYPE":0,"CLASSIFICATION_TYPE":"U","NORAD_CAT_ID":40109,"ELEMENT_SET_NO":999,"REV_AT_EPOCH":56909,"BSTAR":0.00011386118,"MEAN_MOTION_DOT":1.4e-7,"MEAN_MOTION_DDOT":0},{"OBJECT_NAME":"CHUANGXIN 19 (CX-19)","OBJECT_ID":"2023-190A","EPOCH":"2026-03-09T23:33:22.167648","MEAN_MOTION":13.39542289,"ECCENTRICITY":0.00020233,"INCLINATION":86.5095,"RA_OF_ASC_NODE":6.8876,"ARG_OF_PERICENTER":68.0159,"MEAN_ANOMALY":292.1199,"EPHEMERIS_TYPE":0,"CLASSIFICATION_TYPE":"U","NORAD_CAT_ID":58505,"ELEMENT_SET_NO":999,"REV_AT_EPOCH":11141,"BSTAR":0.00014015152,"MEAN_MOTION_DOT":9.1e-7,"MEAN_MOTION_DDOT":0}]
